STARLINK-1051
1 14756C 19074AV  21326.16752814  .00312199  00000-0  11617-2 0  3262
2 14756  53.0539 307.9690 0000934  83.8471 335.0089 15.86987961    13
